STARLINK-31251          
1 58836U 24017L   26063.44695994  .00002312  00000+0  90194-4 0  9995
2 58836  53.1589 228.6672 0001917  62.2578 297.8617 15.30192646119361
STARLINK-31249          
1 58838U 24017N   26062.73483635 -.00000312  00000+0  15890-5 0  9995
2 58838  53.1600 232.0367 0000902 176.5589 183.5418 15.30186543119146
STARLINK-31250          
1 58839U 24017P   26062.70223449 -.00003191  00000+0 -95787-4 0  9999
2 58839  53.1594 221.8905 0001092 122.0012 238.1095 15.30161658119239
STARLINK-31248          
1 58840U 24017Q   26062.90706723  .00009674  00000+0  33879-3 0  9997
2 58840  53.1605 243.7377 0001559  97.5285 262.5893 15.30155676119102
STARLINK-31236          
1 58841U 24017R   26063.45962179 -.00000311  00000+0  16364-5 0  9990
2 58841  53.1597 228.7375 0000984  91.7206 268.3908 15.30205222119254
STARLINK-31228          
1 58842U 24017S   26062.73799601 -.00002560  00000+0 -74372-4 0  9990
2 58842  53.1593 232.0550 0001170  99.4527 260.6606 15.30186597119144
STARLINK-31280          
1 58843U 24017T   26062.74432498 -.00000666  00000+0 -10377-4 0  9990
2 58843  53.1604 232.0956 0000965  85.0897 275.0214 15.30206281119148
STARLINK-31269          
1 58844U 24017U   26063.10224241  .00002038  00000+0  80942-4 0  9995
2 58844  53.1606 320.4031 0001316  77.8816 282.2332 15.30183420117911
STARLINK-31264          
1 58845U 24017V   26062.72501712  .00000800  00000+0  39147-4 0  9990
2 58845  53.1613 321.6067 0001161  80.1758 279.9374 15.30189090117864
STARLINK-31273          
1 58846U 24017W   26063.33334490  .00090851  00000+0  30482-2 0  9992
2 58846  53.1579 229.3937 0001127  93.0379 256.1646 15.30137033  5764
STARLINK-31262          
1 58847U 24017X   26061.94862314  .00000335  00000+0  23441-4 0  9996
2 58847  53.1614 325.2917 0001212  78.5113 281.6023 15.30199891117742
STARLINK-31238          
1 58853U 24019A   26062.99247209  .00001312  00000+0  57189-4 0  9993
2 58853  43.0040 280.8747 0001626 266.6086  93.4579 15.27576364118213
STARLINK-31158          
1 58854U 24019B   26062.99889776  .00002612  00000+0  10442-3 0  9999
2 58854  43.0026 280.9232 0001269 249.7117 110.3598 15.27582013118216
STARLINK-31237          
1 58855U 24019C   26062.98733809  .00001761  00000+0  73493-4 0  9994
2 58855  43.0032 280.8571 0001149 263.6232  96.4489 15.27580001118217
STARLINK-31244          
1 58856U 24019D   26063.00404336 -.00006358  00000+0 -22172-3 0  9995
2 58856  43.0033 280.9687 0001529  25.7780 334.3148 15.27578089118214
STARLINK-31226          
1 58858U 24019F   26063.01946604  .00000663  00000+0  33615-4 0  9993
2 58858  43.0027 281.0827 0001924 270.6060  89.4571 15.27591054118213
