[{"OBJECT_NAME":"STARLINK-31251","OBJECT_ID":"2024-017L","EPOCH":"2026-03-04T10:43:37.338816","MEAN_MOTION":15.30192646,"ECCENTRICITY":0.0001917,"INCLINATION":53.1589,"RA_OF_ASC_NODE":228.6672,"ARG_OF_PERICENTER":62.2578,"MEAN_ANOMALY":297.8617,"EPHEMERIS_TYPE":0,"CLASSIFICATION_TYPE":"U","NORAD_CAT_ID":58836,"ELEMENT_SET_NO":999,"REV_AT_EPOCH":11936,"BSTAR":9.0194e-5,"MEAN_MOTION_DOT":2.312e-5,"MEAN_MOTION_DDOT":0},{"OBJECT_NAME":"STARLINK-31249","OBJECT_ID":"2024-017N","EPOCH":"2026-03-03T17:38:09.860640","MEAN_MOTION":15.30186543,"ECCENTRICITY":9.028e-5,"INCLINATION":53.16,"RA_OF_ASC_NODE":232.0367,"ARG_OF_PERICENTER":176.5589,"MEAN_ANOMALY":183.5418,"EPHEMERIS_TYPE":0,"CLASSIFICATION_TYPE":"U","NORAD_CAT_ID":58838,"ELEMENT_SET_NO":999,"REV_AT_EPOCH":11914,"BSTAR":1.589031e-6,"MEAN_MOTION_DOT":-3.12e-6,"MEAN_MOTION_DDOT":0},{"OBJECT_NAME":"STARLINK-31250","OBJECT_ID":"2024-017P","EPOCH":"2026-03-03T16:51:13.059936","MEAN_MOTION":15.30161658,"ECCENTRICITY":0.00010923,"INCLINATION":53.1594,"RA_OF_ASC_NODE":221.8905,"ARG_OF_PERICENTER":122.0012,"MEAN_ANOMALY":238.1095,"EPHEMERIS_TYPE":0,"CLASSIFICATION_TYPE":"U","NORAD_CAT_ID":58839,"ELEMENT_SET_NO":999,"REV_AT_EPOCH":11923,"BSTAR":-9.5786798e-5,"MEAN_MOTION_DOT":-3.191e-5,"MEAN_MOTION_DDOT":0},{"OBJECT_NAME":"STARLINK-31248","OBJECT_ID":"2024-017Q","EPOCH":"2026-03-03T21:46:10.608672","MEAN_MOTION":15.30155676,"ECCENTRICITY":0.0001559,"INCLINATION":53.1605,"RA_OF_ASC_NODE":243.7377,"ARG_OF_PERICENTER":97.5285,"MEAN_ANOMALY":262.5893,"EPHEMERIS_TYPE":0,"CLASSIFICATION_TYPE":"U","NORAD_CAT_ID":58840,"ELEMENT_SET_NO":999,"REV_AT_EPOCH":11910,"BSTAR":0.00033879,"MEAN_MOTION_DOT":9.674e-5,"MEAN_MOTION_DDOT":0},{"OBJECT_NAME":"STARLINK-31236","OBJECT_ID":"2024-017R","EPOCH":"2026-03-04T11:01:51.322656","MEAN_MOTION":15.30205222,"ECCENTRICITY":9.84e-5,"INCLINATION":53.1597,"RA_OF_ASC_NODE":228.7375,"ARG_OF_PERICENTER":91.7206,"MEAN_ANOMALY":268.3908,"EPHEMERIS_TYPE":0,"CLASSIFICATION_TYPE":"U","NORAD_CAT_ID":58841,"ELEMENT_SET_NO":999,"REV_AT_EPOCH":11925,"BSTAR":1.6364e-6,"MEAN_MOTION_DOT":-3.11e-6,"MEAN_MOTION_DDOT":0},{"OBJECT_NAME":"STARLINK-31228","OBJECT_ID":"2024-017S","EPOCH":"2026-03-03T17:42:42.855264","MEAN_MOTION":15.30186597,"ECCENTRICITY":0.00011702,"INCLINATION":53.1593,"RA_OF_ASC_NODE":232.055,"ARG_OF_PERICENTER":99.4527,"MEAN_ANOMALY":260.6606,"EPHEMERIS_TYPE":0,"CLASSIFICATION_TYPE":"U","NORAD_CAT_ID":58842,"ELEMENT_SET_NO":999,"REV_AT_EPOCH":11914,"BSTAR":-7.4372186e-5,"MEAN_MOTION_DOT":-2.56e-5,"MEAN_MOTION_DDOT":0},{"OBJECT_NAME":"STARLINK-31280","OBJECT_ID":"2024-017T","EPOCH":"2026-03-03T17:51:49.678272","MEAN_MOTION":15.30206281,"ECCENTRICITY":9.65e-5,"INCLINATION":53.1604,"RA_OF_ASC_NODE":232.0956,"ARG_OF_PERICENTER":85.0897,"MEAN_ANOMALY":275.0214,"EPHEMERIS_TYPE":0,"CLASSIFICATION_TYPE":"U","NORAD_CAT_ID":58843,"ELEMENT_SET_NO":999,"REV_AT_EPOCH":11914,"BSTAR":-1.0377e-5,"MEAN_MOTION_DOT":-6.66e-6,"MEAN_MOTION_DDOT":0},{"OBJECT_NAME":"STARLINK-31269","OBJECT_ID":"2024-017U","EPOCH":"2026-03-04T02:27:13.744224","MEAN_MOTION":15.3018342,"ECCENTRICITY":0.0001316,"INCLINATION":53.1606,"RA_OF_ASC_NODE":320.4031,"ARG_OF_PERICENTER":77.8816,"MEAN_ANOMALY":282.2332,"EPHEMERIS_TYPE":0,"CLASSIFICATION_TYPE":"U","NORAD_CAT_ID":58844,"ELEMENT_SET_NO":999,"REV_AT_EPOCH":11791,"BSTAR":8.0942e-5,"MEAN_MOTION_DOT":2.038e-5,"MEAN_MOTION_DDOT":0},{"OBJECT_NAME":"STARLINK-31264","OBJECT_ID":"2024-017V","EPOCH":"2026-03-03T17:24:01.479168","MEAN_MOTION":15.3018909,"ECCENTRICITY":0.00011614,"INCLINATION":53.1613,"RA_OF_ASC_NODE":321.6067,"ARG_OF_PERICENTER":80.1758,"MEAN_ANOMALY":279.9374,"EPHEMERIS_TYPE":0,"CLASSIFICATION_TYPE":"U","NORAD_CAT_ID":58845,"ELEMENT_SET_NO":999,"REV_AT_EPOCH":11786,"BSTAR":3.9147392e-5,"MEAN_MOTION_DOT":8.0e-6,"MEAN_MOTION_DDOT":0},{"OBJECT_NAME":"STARLINK-31273","OBJECT_ID":"2024-017W","EPOCH":"2026-03-04T08:00:00.999360","MEAN_MOTION":15.30137033,"ECCENTRICITY":0.0001127,"INCLINATION":53.1579,"RA_OF_ASC_NODE":229.3937,"ARG_OF_PERICENTER":93.0379,"MEAN_ANOMALY":256.1646,"EPHEMERIS_TYPE":0,"CLASSIFICATION_TYPE":"U","NORAD_CAT_ID":58846,"ELEMENT_SET_NO":999,"REV_AT_EPOCH":576,"BSTAR":0.0030482,"MEAN_MOTION_DOT":0.00090851,"MEAN_MOTION_DDOT":0},{"OBJECT_NAME":"STARLINK-31262","OBJECT_ID":"2024-017X","EPOCH":"2026-03-02T22:46:01.039296","MEAN_MOTION":15.30199891,"ECCENTRICITY":0.0001212,"INCLINATION":53.1614,"RA_OF_ASC_NODE":325.2917,"ARG_OF_PERICENTER":78.5113,"MEAN_ANOMALY":281.6023,"EPHEMERIS_TYPE":0,"CLASSIFICATION_TYPE":"U","NORAD_CAT_ID":58847,"ELEMENT_SET_NO":999,"REV_AT_EPOCH":11774,"BSTAR":2.3441e-5,"MEAN_MOTION_DOT":3.35e-6,"MEAN_MOTION_DDOT":0},{"OBJECT_NAME":"STARLINK-31238","OBJECT_ID":"2024-019A","EPOCH":"2026-03-03T23:49:09.588576","MEAN_MOTION":15.27576364,"ECCENTRICITY":0.0001626,"INCLINATION":43.004,"RA_OF_ASC_NODE":280.8747,"ARG_OF_PERICENTER":266.6086,"MEAN_ANOMALY":93.4579,"EPHEMERIS_TYPE":0,"CLASSIFICATION_TYPE":"U","NORAD_CAT_ID":58853,"ELEMENT_SET_NO":999,"REV_AT_EPOCH":11821,"BSTAR":5.7189e-5,"MEAN_MOTION_DOT":1.312e-5,"MEAN_MOTION_DDOT":0},{"OBJECT_NAME":"STARLINK-31158","OBJECT_ID":"2024-019B","EPOCH":"2026-03-03T23:58:24.766464","MEAN_MOTION":15.27582013,"ECCENTRICITY":0.0001269,"INCLINATION":43.0026,"RA_OF_ASC_NODE":280.9232,"ARG_OF_PERICENTER":249.7117,"MEAN_ANOMALY":110.3598,"EPHEMERIS_TYPE":0,"CLASSIFICATION_TYPE":"U","NORAD_CAT_ID":58854,"ELEMENT_SET_NO":999,"REV_AT_EPOCH":11821,"BSTAR":0.00010442,"MEAN_MOTION_DOT":2.612e-5,"MEAN_MOTION_DDOT":0},{"OBJECT_NAME":"STARLINK-31237","OBJECT_ID":"2024-019C","EPOCH":"2026-03-03T23:41:46.010976","MEAN_MOTION":15.27580001,"ECCENTRICITY":0.0001149,"INCLINATION":43.0032,"RA_OF_ASC_NODE":280.8571,"ARG_OF_PERICENTER":263.6232,"MEAN_ANOMALY":96.4489,"EPHEMERIS_TYPE":0,"CLASSIFICATION_TYPE":"U","NORAD_CAT_ID":58855,"ELEMENT_SET_NO":999,"REV_AT_EPOCH":11821,"BSTAR":7.3493e-5,"MEAN_MOTION_DOT":1.761e-5,"MEAN_MOTION_DDOT":0},{"OBJECT_NAME":"STARLINK-31244","OBJECT_ID":"2024-019D","EPOCH":"2026-03-04T00:05:49.346304","MEAN_MOTION":15.27578089,"ECCENTRICITY":0.0001529,"INCLINATION":43.0033,"RA_OF_ASC_NODE":280.9687,"ARG_OF_PERICENTER":25.778,"MEAN_ANOMALY":334.3148,"EPHEMERIS_TYPE":0,"CLASSIFICATION_TYPE":"U","NORAD_CAT_ID":58856,"ELEMENT_SET_NO":999,"REV_AT_EPOCH":11821,"BSTAR":-0.00022172,"MEAN_MOTION_DOT":-6.358e-5,"MEAN_MOTION_DDOT":0},{"OBJECT_NAME":"STARLINK-31226","OBJECT_ID":"2024-019F","EPOCH":"2026-03-04T00:28:01.865856","MEAN_MOTION":15.27591054,"ECCENTRICITY":0.0001924,"INCLINATION":43.0027,"RA_OF_ASC_NODE":281.0827,"ARG_OF_PERICENTER":270.606,"MEAN_ANOMALY":89.4571,"EPHEMERIS_TYPE":0,"CLASSIFICATION_TYPE":"U","NORAD_CAT_ID":58858,"ELEMENT_SET_NO":999,"REV_AT_EPOCH":11821,"BSTAR":3.3615e-5,"MEAN_MOTION_DOT":6.63e-6,"MEAN_MOTION_DDOT":0}]
